{"type":"FeatureCollection","features":[{"type":"Feature","properties":{},"geometry":{"coordinates":[[-47.53360156522325,-22.740709465783084],[-47.53382630851132,-22.74063543984593],[-47.533950356909,-22.740413779221754],[-47.533779790364235,-22.739949005778996],[-47.533237078631174,-22.73882639263961],[-47.53265560177499,-22.73766801782537],[-47.532477282204724,-22.737403449360983],[-47.53209738399204,-22.73736769682715],[-47.531694226704985,-22.737567910898576],[-47.5313065754668,-22.73799694006621],[-47.530965442377294,-22.73839021562108],[-47.530926677253035,-22.738876445650916],[-47.531112749847665,-22.739169612921785],[-47.53145388293723,-22.73934837314431],[-47.53187254627417,-22.739391275562994],[-47.53194232349716,-22.739141011264763],[-47.531841534175385,-22.73889789693598],[-47.53158568435774,-22.738890746508332],[-47.53143062386289,-22.73892649864392],[-47.53126005731812,-22.73878349004366],[-47.53133758756553,-22.738533224632718],[-47.53215165516511,-22.737875381939148],[-47.532329974734296,-22.737853930493614],[-47.53254705942774,-22.738018391489305],[-47.533019993937785,-22.738876445650916],[-47.53346966937454,-22.739734494426997],[-47.53356270567082,-22.739913253910828],[-47.53345416332465,-22.740084862794816],[-47.53322932560678,-22.739984757638766],[-47.53262458967515,-22.738962250771067],[-47.53251604732898,-22.73876203874059],[-47.5325315533789,-22.738490321944752],[-47.532353233808664,-22.73838306516589],[-47.53212839609077,-22.73843311834044],[-47.53210513701649,-22.738619029968334],[-47.532446270105936,-22.73927686908351],[-47.53262458967515,-22.739541433921502],[-47.53298122881458,-22.740106313890266],[-47.53333011492853,-22.74060683849426],[-47.53360147079508,-22.740706943194795]],"type":"LineString"}},{"type":"Feature","properties":{},"geometry":{"coordinates":[[-51.01867194297225,-30.047664959535204],[-51.01837921495755,-30.0482268183942],[-51.018277396517846,-30.04885477452389],[-51.01863376105729,-30.04913019262313],[-51.01904103481613,-30.049251376344138],[-51.020771948292094,-30.048799690812267],[-51.02172649616446,-30.04899799203085],[-51.02237558871775,-30.049438659984354],[-51.02302468127101,-30.05027592369479],[-51.02311377240545,-30.05077166860781],[-51.02268104403686,-30.051311476913497],[-51.02182831460419,-30.051454690867935],[-51.01577011744007,-30.050386089445304],[-51.01517193410626,-30.049592893305046],[-51.015541025950085,-30.047841229324256],[-51.01585920857448,-30.047059029743124],[-51.01658466495775,-30.04665140216025],[-51.018162850773734,-30.046816656788152],[-51.019091944036404,-30.046970894191837],[-51.02008467382382,-30.04660733421344],[-51.021421040845354,-30.04577003949113],[-51.02173922346893,-30.045626817316773],[-51.022171951838345,-30.04573698823839],[-51.022311952193036,-30.046100551411236],[-51.022171951838345,-30.04640902820858],[-51.02162467772476,-30.046541232255684],[-51.020491947582656,-30.046673436127115],[-51.01863376105729,-30.047686993275775]],"type":"LineString"}},{"type":"Feature","properties":{},"geometry":{"coordinates":[[-52.43251596640327,-29.797024600538307],[-52.43279983738188,-29.79767740140646],[-52.43325403094691,-29.798835188697083],[-52.43389274064762,-29.800190029151942],[-52.434644998739586,-29.80193897788125],[-52.43530173689521,-29.803381485438123],[-52.435548013703425,-29.803719848396383],[-52.435876382781046,-29.80389793370378],[-52.4381727507882,-29.80386443636793],[-52.43881839423473,-29.803468400017273],[-52.43894084385407,-29.803024064684976],[-52.43880726245169,-29.802705301164266],[-52.438217277922064,-29.802251302883455],[-52.43798351046729,-29.8018069621436],[-52.438061432952736,-29.801198405319795],[-52.43858462677997,-29.800560865630317],[-52.43868481283235,-29.799971620788618],[-52.43837312289217,-29.799469310969066],[-52.43779427014637,-29.79923747481832],[-52.437271076319135,-29.799295433906714],[-52.43624695223073,-29.800135836912624],[-52.435523386298755,-29.800531886456838],[-52.43475529323284,-29.80001991967596],[-52.43482208393445,-29.79958522884371],[-52.4351894327916,-29.79951761010026],[-52.435679231268836,-29.79964318773068],[-52.43723768096835,-29.798087945963736],[-52.43784016902839,-29.79741377033872],[-52.4383950922423,-29.79698724871752],[-52.43912441989504,-29.796890937132524],[-52.43942566392552,-29.796368101194354],[-52.43883903081337,-29.795982851912434],[-52.43820483285472,-29.796340583437917],[-52.437887733875414,-29.79658824297487],[-52.43577902566197,-29.79695973113138],[-52.434685034183445,-29.79700100750822],[-52.43436793520415,-29.796780866635764],[-52.43286171505166,-29.796698313683507],[-52.43249705122531,-29.796973489925854]],"type":"LineString"}}]}