{
  "type": "FeatureCollection",
  "features": [
    {
      "type": "Feature",
      "properties": {
        "name": "Aldeia"
      },
      "geometry": {
        "coordinates": [
          [
            -46.93218260256333,
            -23.507372704448613
          ],
          [
            -46.9320847950834,
            -23.507433770181436
          ],
          [
            -46.931714375266495,
            -23.508870715029275
          ],
          [
            -46.93169980819516,
            -23.509021469291113
          ],
          [
            -46.93173102334805,
            -23.509097800496264
          ],
          [
            -46.9317664005213,
            -23.509130241245956
          ],
          [
            -46.93184131688915,
            -23.509181764771682
          ],
          [
            -46.932411513686276,
            -23.509267637270725
          ],
          [
            -46.93272782723815,
            -23.50929816970104
          ],
          [
            -46.9328048246162,
            -23.50927336210195
          ],
          [
            -46.932871416942305,
            -23.509162681986737
          ],
          [
            -46.932875578962694,
            -23.509090167377735
          ],
          [
            -46.93273198925857,
            -23.508567297701575
          ],
          [
            -46.932719503197404,
            -23.50844707554839
          ],
          [
            -46.9328297967385,
            -23.507964277541447
          ],
          [
            -46.932900551085964,
            -23.50771429052682
          ],
          [
            -46.932992115534375,
            -23.507553993259535
          ],
          [
            -46.93329386201495,
            -23.507395604102257
          ],
          [
            -46.93338551896559,
            -23.507310044891625
          ],
          [
            -46.93343282726815,
            -23.5072232805653
          ],
          [
            -46.93342100019251,
            -23.507149771855694
          ],
          [
            -46.93336843541135,
            -23.50709072384599
          ],
          [
            -46.93327250468619,
            -23.507059392238574
          ],
          [
            -46.93315949040681,
            -23.507061802362458
          ],
          [
            -46.93298996898824,
            -23.507117235201406
          ],
          [
            -46.93233553746481,
            -23.507317275249434
          ],
          [
            -46.932179157240824,
            -23.507372707980892
          ]
        ],
        "type": "LineString"
      },
      "id": 0
    },
    {
      "type": "Feature",
      "properties": {
        "name": "Piracicaba"
      },
      "geometry": {
        "coordinates": [
          [
            -47.53360156522325,
            -22.740709465783084
          ],
          [
            -47.53382630851132,
            -22.74063543984593
          ],
          [
            -47.533950356909,
            -22.740413779221754
          ],
          [
            -47.533779790364235,
            -22.739949005778996
          ],
          [
            -47.533237078631174,
            -22.73882639263961
          ],
          [
            -47.53265560177499,
            -22.73766801782537
          ],
          [
            -47.532477282204724,
            -22.737403449360983
          ],
          [
            -47.53209738399204,
            -22.73736769682715
          ],
          [
            -47.531694226704985,
            -22.737567910898576
          ],
          [
            -47.5313065754668,
            -22.73799694006621
          ],
          [
            -47.530965442377294,
            -22.73839021562108
          ],
          [
            -47.530926677253035,
            -22.738876445650916
          ],
          [
            -47.531112749847665,
            -22.739169612921785
          ],
          [
            -47.53145388293723,
            -22.73934837314431
          ],
          [
            -47.53187254627417,
            -22.739391275562994
          ],
          [
            -47.53194232349716,
            -22.739141011264763
          ],
          [
            -47.531841534175385,
            -22.73889789693598
          ],
          [
            -47.53158568435774,
            -22.738890746508332
          ],
          [
            -47.53143062386289,
            -22.73892649864392
          ],
          [
            -47.53126005731812,
            -22.73878349004366
          ],
          [
            -47.53133758756553,
            -22.738533224632718
          ],
          [
            -47.53215165516511,
            -22.737875381939148
          ],
          [
            -47.532329974734296,
            -22.737853930493614
          ],
          [
            -47.53254705942774,
            -22.738018391489305
          ],
          [
            -47.533019993937785,
            -22.738876445650916
          ],
          [
            -47.53346966937454,
            -22.739734494426997
          ],
          [
            -47.53356270567082,
            -22.739913253910828
          ],
          [
            -47.53345416332465,
            -22.740084862794816
          ],
          [
            -47.53322932560678,
            -22.739984757638766
          ],
          [
            -47.53262458967515,
            -22.738962250771067
          ],
          [
            -47.53251604732898,
            -22.73876203874059
          ],
          [
            -47.5325315533789,
            -22.738490321944752
          ],
          [
            -47.532353233808664,
            -22.73838306516589
          ],
          [
            -47.53212839609077,
            -22.73843311834044
          ],
          [
            -47.53210513701649,
            -22.738619029968334
          ],
          [
            -47.532446270105936,
            -22.73927686908351
          ],
          [
            -47.53262458967515,
            -22.739541433921502
          ],
          [
            -47.53298122881458,
            -22.740106313890266
          ],
          [
            -47.53333011492853,
            -22.74060683849426
          ],
          [
            -47.53360147079508,
            -22.740706943194795
          ]
        ],
        "type": "LineString"
      }
    },
    {
      "type": "Feature",
      "properties": {
        "name": "SantaCruz"
      },
      "geometry": {
        "coordinates": [
          [
            -52.43308196209824,
            -29.79669486969292
          ],
          [
            -52.43260828029257,
            -29.796805966464852
          ],
          [
            -52.432557071449224,
            -29.797061488573092
          ],
          [
            -52.43269789576971,
            -29.797505873293204
          ],
          [
            -52.43292833556649,
            -29.798005803743997
          ],
          [
            -52.433222786418725,
            -29.79875014000931
          ],
          [
            -52.43387569917691,
            -29.80020546805254
          ],
          [
            -52.43446460088053,
            -29.801671884055516
          ],
          [
            -52.43529674459131,
            -29.80346043811423
          ],
          [
            -52.43566800870941,
            -29.803849249982214
          ],
          [
            -52.43606487724833,
            -29.803927012174142
          ],
          [
            -52.437716362460336,
            -29.803915903292953
          ],
          [
            -52.43838207742981,
            -29.80387146775739
          ],
          [
            -52.43874053933578,
            -29.803638180869925
          ],
          [
            -52.43893257250048,
            -29.80319382338849
          ],
          [
            -52.43888136365628,
            -29.802871662979406
          ],
          [
            -52.43844608848441,
            -29.802405083997037
          ],
          [
            -52.43798520889001,
            -29.801960721037958
          ],
          [
            -52.43801081331257,
            -29.80127195455035
          ],
          [
            -52.438625319437875,
            -29.800505418528495
          ],
          [
            -52.43871493491412,
            -29.799949953973695
          ],
          [
            -52.43825405532061,
            -29.799383376950303
          ],
          [
            -52.43761394477278,
            -29.79925006424284
          ],
          [
            -52.437025043069184,
            -29.799438923859036
          ],
          [
            -52.43597526177207,
            -29.80039432586439
          ],
          [
            -52.435373557857176,
            -29.8004832000057
          ],
          [
            -52.434771853943175,
            -29.80000550056787
          ],
          [
            -52.43475905173189,
            -29.79966111118648
          ],
          [
            -52.43516872248209,
            -29.79951668948015
          ],
          [
            -52.43557839323226,
            -29.79966111118648
          ],
          [
            -52.43578322860736,
            -29.799550017584075
          ],
          [
            -52.43664097674068,
            -29.79870570217915
          ],
          [
            -52.43802361552298,
            -29.797239242697955
          ],
          [
            -52.43843328627317,
            -29.79703926928474
          ],
          [
            -52.43913740787558,
            -29.79691706311344
          ],
          [
            -52.4393806498836,
            -29.796417127222632
          ],
          [
            -52.43899658355511,
            -29.796061615736086
          ],
          [
            -52.43859971501621,
            -29.796072725489452
          ],
          [
            -52.438087626577556,
            -29.79645045635985
          ],
          [
            -52.43696103201458,
            -29.796817076135575
          ],
          [
            -52.435347953435496,
            -29.797050378929512
          ],
          [
            -52.43474624952064,
            -29.796983721043688
          ],
          [
            -52.43441339203632,
            -29.796817076135575
          ],
          [
            -52.43304355546529,
            -29.796717089057054
          ]
        ],
        "type": "LineString"
      }
    },
    {
      "type": "Feature",
      "properties": {
        "id": "br-1940",
        "Location": "Sao Paulo",
        "Name": "Aut\u00f3dromo Jos\u00e9 Carlos Pace - Interlagos",
        "opened": 1940,
        "firstgp": 1973,
        "length": 4309,
        "altitude": 765,
        "name": "Taruma"
      },
      "bbox": [
        -46.700536,
        -23.706404,
        -46.694033,
        -23.696978
      ],
      "geometry": {
        "type": "LineString",
        "coordinates": [
          [
            -46.699905,
            -23.703744
          ],
          [
            -46.699329,
            -23.705785
          ],
          [
            -46.699268,
            -23.706
          ],
          [
            -46.699207,
            -23.706124
          ],
          [
            -46.699069,
            -23.706312
          ],
          [
            -46.698998,
            -23.706365
          ],
          [
            -46.698896,
            -23.706403
          ],
          [
            -46.698795,
            -23.706404
          ],
          [
            -46.698684,
            -23.706383
          ],
          [
            -46.698626,
            -23.706355
          ],
          [
            -46.698446,
            -23.706203
          ],
          [
            -46.698271,
            -23.706025
          ],
          [
            -46.698202,
            -23.705978
          ],
          [
            -46.698112,
            -23.705949
          ],
          [
            -46.698021,
            -23.705944
          ],
          [
            -46.697889,
            -23.705983
          ],
          [
            -46.697609,
            -23.70614
          ],
          [
            -46.697387,
            -23.706224
          ],
          [
            -46.697222,
            -23.706263
          ],
          [
            -46.697071,
            -23.706281
          ],
          [
            -46.696933,
            -23.706288
          ],
          [
            -46.69673,
            -23.706266
          ],
          [
            -46.696575,
            -23.706235
          ],
          [
            -46.696384,
            -23.706172
          ],
          [
            -46.696205,
            -23.706077
          ],
          [
            -46.696028,
            -23.70595
          ],
          [
            -46.695885,
            -23.705812
          ],
          [
            -46.695772,
            -23.705665
          ],
          [
            -46.695688,
            -23.705527
          ],
          [
            -46.695618,
            -23.705372
          ],
          [
            -46.695344,
            -23.704543
          ],
          [
            -46.695228,
            -23.704127
          ],
          [
            -46.69503,
            -23.703421
          ],
          [
            -46.694788,
            -23.702519
          ],
          [
            -46.694363,
            -23.701041
          ],
          [
            -46.69421,
            -23.700508
          ],
          [
            -46.694102,
            -23.700134
          ],
          [
            -46.694052,
            -23.69996
          ],
          [
            -46.694033,
            -23.69985
          ],
          [
            -46.694045,
            -23.699747
          ],
          [
            -46.694073,
            -23.699677
          ],
          [
            -46.694134,
            -23.699594
          ],
          [
            -46.694244,
            -23.699524
          ],
          [
            -46.694372,
            -23.699475
          ],
          [
            -46.694557,
            -23.69944
          ],
          [
            -46.69511,
            -23.69934
          ],
          [
            -46.695326,
            -23.699318
          ],
          [
            -46.69546,
            -23.699327
          ],
          [
            -46.695624,
            -23.699348
          ],
          [
            -46.695779,
            -23.69939
          ],
          [
            -46.695916,
            -23.699464
          ],
          [
            -46.696046,
            -23.699534
          ],
          [
            -46.696176,
            -23.699632
          ],
          [
            -46.696301,
            -23.699759
          ],
          [
            -46.696472,
            -23.699958
          ],
          [
            -46.697034,
            -23.700653
          ],
          [
            -46.697364,
            -23.701081
          ],
          [
            -46.697645,
            -23.701447
          ],
          [
            -46.697953,
            -23.701817
          ],
          [
            -46.698115,
            -23.702023
          ],
          [
            -46.69824,
            -23.702178
          ],
          [
            -46.698327,
            -23.702266
          ],
          [
            -46.698424,
            -23.702321
          ],
          [
            -46.698562,
            -23.702366
          ],
          [
            -46.698714,
            -23.702384
          ],
          [
            -46.698942,
            -23.702379
          ],
          [
            -46.699094,
            -23.702356
          ],
          [
            -46.699215,
            -23.702321
          ],
          [
            -46.699323,
            -23.702276
          ],
          [
            -46.699508,
            -23.702184
          ],
          [
            -46.6996,
            -23.702109
          ],
          [
            -46.699661,
            -23.702035
          ],
          [
            -46.69972,
            -23.701928
          ],
          [
            -46.699765,
            -23.701783
          ],
          [
            -46.699821,
            -23.701569
          ],
          [
            -46.699867,
            -23.701373
          ],
          [
            -46.699929,
            -23.701013
          ],
          [
            -46.699941,
            -23.700864
          ],
          [
            -46.699938,
            -23.700713
          ],
          [
            -46.699899,
            -23.700598
          ],
          [
            -46.699836,
            -23.70054
          ],
          [
            -46.699792,
            -23.700519
          ],
          [
            -46.699737,
            -23.700502
          ],
          [
            -46.699662,
            -23.700494
          ],
          [
            -46.699583,
            -23.700512
          ],
          [
            -46.6995,
            -23.700542
          ],
          [
            -46.699276,
            -23.700698
          ],
          [
            -46.699186,
            -23.700747
          ],
          [
            -46.699116,
            -23.700774
          ],
          [
            -46.699041,
            -23.700788
          ],
          [
            -46.698972,
            -23.700793
          ],
          [
            -46.698896,
            -23.700784
          ],
          [
            -46.698792,
            -23.700749
          ],
          [
            -46.698669,
            -23.700656
          ],
          [
            -46.6986,
            -23.700562
          ],
          [
            -46.698563,
            -23.700459
          ],
          [
            -46.698557,
            -23.700371
          ],
          [
            -46.698572,
            -23.700269
          ],
          [
            -46.698614,
            -23.700189
          ],
          [
            -46.69871,
            -23.70006
          ],
          [
            -46.698797,
            -23.69998
          ],
          [
            -46.699104,
            -23.699705
          ],
          [
            -46.699262,
            -23.699539
          ],
          [
            -46.699371,
            -23.699391
          ],
          [
            -46.69945,
            -23.699193
          ],
          [
            -46.699511,
            -23.698947
          ],
          [
            -46.699539,
            -23.698798
          ],
          [
            -46.699554,
            -23.698664
          ],
          [
            -46.699544,
            -23.698554
          ],
          [
            -46.699497,
            -23.698479
          ],
          [
            -46.699458,
            -23.698434
          ],
          [
            -46.699395,
            -23.698415
          ],
          [
            -46.699343,
            -23.698403
          ],
          [
            -46.699276,
            -23.698413
          ],
          [
            -46.699198,
            -23.698442
          ],
          [
            -46.698823,
            -23.698833
          ],
          [
            -46.698499,
            -23.699161
          ],
          [
            -46.698443,
            -23.699203
          ],
          [
            -46.698322,
            -23.69928
          ],
          [
            -46.698211,
            -23.699325
          ],
          [
            -46.698119,
            -23.69935
          ],
          [
            -46.698006,
            -23.699367
          ],
          [
            -46.697901,
            -23.699378
          ],
          [
            -46.69778,
            -23.699379
          ],
          [
            -46.69759,
            -23.699354
          ],
          [
            -46.697445,
            -23.699311
          ],
          [
            -46.697291,
            -23.69923
          ],
          [
            -46.697135,
            -23.699114
          ],
          [
            -46.697048,
            -23.699009
          ],
          [
            -46.696955,
            -23.698891
          ],
          [
            -46.696706,
            -23.698532
          ],
          [
            -46.696431,
            -23.69811
          ],
          [
            -46.69612,
            -23.697649
          ],
          [
            -46.6961,
            -23.697595
          ],
          [
            -46.696095,
            -23.697531
          ],
          [
            -46.696114,
            -23.697468
          ],
          [
            -46.69615,
            -23.6974
          ],
          [
            -46.696219,
            -23.697341
          ],
          [
            -46.696382,
            -23.697263
          ],
          [
            -46.696619,
            -23.697184
          ],
          [
            -46.6971,
            -23.697018
          ],
          [
            -46.697194,
            -23.696995
          ],
          [
            -46.697314,
            -23.696978
          ],
          [
            -46.697556,
            -23.697002
          ],
          [
            -46.697768,
            -23.697035
          ],
          [
            -46.698232,
            -23.697126
          ],
          [
            -46.698386,
            -23.697174
          ],
          [
            -46.698692,
            -23.697291
          ],
          [
            -46.698843,
            -23.697352
          ],
          [
            -46.699203,
            -23.69753
          ],
          [
            -46.699346,
            -23.697619
          ],
          [
            -46.699468,
            -23.697719
          ],
          [
            -46.699592,
            -23.697824
          ],
          [
            -46.699693,
            -23.697933
          ],
          [
            -46.699783,
            -23.698061
          ],
          [
            -46.699865,
            -23.698224
          ],
          [
            -46.699931,
            -23.698398
          ],
          [
            -46.700035,
            -23.698753
          ],
          [
            -46.700148,
            -23.6992
          ],
          [
            -46.700223,
            -23.699621
          ],
          [
            -46.700352,
            -23.70007
          ],
          [
            -46.700435,
            -23.700408
          ],
          [
            -46.700507,
            -23.700642
          ],
          [
            -46.700531,
            -23.700812
          ],
          [
            -46.700536,
            -23.701043
          ],
          [
            -46.700522,
            -23.701317
          ],
          [
            -46.700489,
            -23.701522
          ],
          [
            -46.700433,
            -23.701761
          ],
          [
            -46.700336,
            -23.702105
          ],
          [
            -46.700053,
            -23.703195
          ],
          [
            -46.699905,
            -23.703744
          ]
        ]
      }
    },
    {
      "type": "Feature",
      "properties": {
        "id": "br-1977",
        "Location": "Jacarepagu\u00e1",
        "Name": "Aut\u00f3dromo Internacional Nelson Piquet",
        "opened": 1977,
        "firstgp": 1978,
        "length": 5031,
        "altitude": 3,
        "name": "NelsonPiquet"
      },
      "bbox": [
        -43.399859,
        -22.980204,
        -43.3893,
        -22.974123
      ],
      "geometry": {
        "type": "LineString",
        "coordinates": [
          [
            -43.395225,
            -22.97485
          ],
          [
            -43.392908,
            -22.974865
          ],
          [
            -43.39259,
            -22.9749
          ],
          [
            -43.392348,
            -22.975006
          ],
          [
            -43.392132,
            -22.975221
          ],
          [
            -43.392005,
            -22.975424
          ],
          [
            -43.391941,
            -22.975658
          ],
          [
            -43.391941,
            -22.97592
          ],
          [
            -43.391996,
            -22.976174
          ],
          [
            -43.39217,
            -22.976377
          ],
          [
            -43.392344,
            -22.976545
          ],
          [
            -43.392582,
            -22.976627
          ],
          [
            -43.392709,
            -22.976639
          ],
          [
            -43.393986,
            -22.976607
          ],
          [
            -43.394207,
            -22.976683
          ],
          [
            -43.394338,
            -22.976801
          ],
          [
            -43.394436,
            -22.976933
          ],
          [
            -43.394478,
            -22.977101
          ],
          [
            -43.394482,
            -22.978515
          ],
          [
            -43.394423,
            -22.978685
          ],
          [
            -43.39433,
            -22.97881
          ],
          [
            -43.394211,
            -22.978919
          ],
          [
            -43.394003,
            -22.979021
          ],
          [
            -43.393816,
            -22.97906
          ],
          [
            -43.393596,
            -22.979072
          ],
          [
            -43.393434,
            -22.97906
          ],
          [
            -43.393171,
            -22.978927
          ],
          [
            -43.391708,
            -22.977986
          ],
          [
            -43.391112,
            -22.977425
          ],
          [
            -43.39098,
            -22.9773
          ],
          [
            -43.390959,
            -22.977198
          ],
          [
            -43.390963,
            -22.975653
          ],
          [
            -43.390887,
            -22.975493
          ],
          [
            -43.390671,
            -22.975392
          ],
          [
            -43.390391,
            -22.975364
          ],
          [
            -43.39006,
            -22.97549
          ],
          [
            -43.389843,
            -22.975561
          ],
          [
            -43.389614,
            -22.975576
          ],
          [
            -43.389432,
            -22.975443
          ],
          [
            -43.3893,
            -22.975201
          ],
          [
            -43.389309,
            -22.974955
          ],
          [
            -43.389453,
            -22.974744
          ],
          [
            -43.389657,
            -22.974592
          ],
          [
            -43.389835,
            -22.974525
          ],
          [
            -43.391515,
            -22.974201
          ],
          [
            -43.396126,
            -22.974123
          ],
          [
            -43.399036,
            -22.974201
          ],
          [
            -43.399312,
            -22.974291
          ],
          [
            -43.399541,
            -22.974432
          ],
          [
            -43.399702,
            -22.974623
          ],
          [
            -43.399796,
            -22.974842
          ],
          [
            -43.399859,
            -22.975064
          ],
          [
            -43.399855,
            -22.975252
          ],
          [
            -43.399834,
            -22.975471
          ],
          [
            -43.399796,
            -22.975666
          ],
          [
            -43.399694,
            -22.975846
          ],
          [
            -43.399554,
            -22.976029
          ],
          [
            -43.399376,
            -22.976185
          ],
          [
            -43.399168,
            -22.976314
          ],
          [
            -43.398858,
            -22.976404
          ],
          [
            -43.398459,
            -22.97649
          ],
          [
            -43.39815,
            -22.976572
          ],
          [
            -43.398048,
            -22.976668
          ],
          [
            -43.397929,
            -22.97684
          ],
          [
            -43.39791,
            -22.976991
          ],
          [
            -43.397936,
            -22.977182
          ],
          [
            -43.398199,
            -22.978499
          ],
          [
            -43.398211,
            -22.978635
          ],
          [
            -43.398207,
            -22.978807
          ],
          [
            -43.398169,
            -22.978936
          ],
          [
            -43.398097,
            -22.979084
          ],
          [
            -43.398008,
            -22.979209
          ],
          [
            -43.397897,
            -22.979291
          ],
          [
            -43.396682,
            -22.98015
          ],
          [
            -43.396538,
            -22.9802
          ],
          [
            -43.396381,
            -22.980204
          ],
          [
            -43.396194,
            -22.980161
          ],
          [
            -43.396037,
            -22.980068
          ],
          [
            -43.395884,
            -22.979892
          ],
          [
            -43.395838,
            -22.97974
          ],
          [
            -43.395787,
            -22.976738
          ],
          [
            -43.39585,
            -22.976594
          ],
          [
            -43.395961,
            -22.976496
          ],
          [
            -43.39613,
            -22.97641
          ],
          [
            -43.398809,
            -22.975821
          ],
          [
            -43.398962,
            -22.9757
          ],
          [
            -43.399055,
            -22.975536
          ],
          [
            -43.399094,
            -22.975364
          ],
          [
            -43.39903,
            -22.975173
          ],
          [
            -43.398941,
            -22.975024
          ],
          [
            -43.398784,
            -22.974907
          ],
          [
            -43.398551,
            -22.974841
          ],
          [
            -43.395225,
            -22.97485
          ]
        ]
      }
    },
    {
      "type": "Feature",
      "properties": {
        "id": "br-1940",
        "Location": "Sao Paulo",
        "Name": "Aut\u00f3dromo Jos\u00e9 Carlos Pace - Interlagos",
        "opened": 1940,
        "firstgp": 1973,
        "length": 4309,
        "altitude": 765,
        "name": "Interlagos"
      },
      "bbox": [
        -46.700536,
        -23.706404,
        -46.694033,
        -23.696978
      ],
      "geometry": {
        "type": "LineString",
        "coordinates": [
          [
            -46.699905,
            -23.703744
          ],
          [
            -46.699329,
            -23.705785
          ],
          [
            -46.699268,
            -23.706
          ],
          [
            -46.699207,
            -23.706124
          ],
          [
            -46.699069,
            -23.706312
          ],
          [
            -46.698998,
            -23.706365
          ],
          [
            -46.698896,
            -23.706403
          ],
          [
            -46.698795,
            -23.706404
          ],
          [
            -46.698684,
            -23.706383
          ],
          [
            -46.698626,
            -23.706355
          ],
          [
            -46.698446,
            -23.706203
          ],
          [
            -46.698271,
            -23.706025
          ],
          [
            -46.698202,
            -23.705978
          ],
          [
            -46.698112,
            -23.705949
          ],
          [
            -46.698021,
            -23.705944
          ],
          [
            -46.697889,
            -23.705983
          ],
          [
            -46.697609,
            -23.70614
          ],
          [
            -46.697387,
            -23.706224
          ],
          [
            -46.697222,
            -23.706263
          ],
          [
            -46.697071,
            -23.706281
          ],
          [
            -46.696933,
            -23.706288
          ],
          [
            -46.69673,
            -23.706266
          ],
          [
            -46.696575,
            -23.706235
          ],
          [
            -46.696384,
            -23.706172
          ],
          [
            -46.696205,
            -23.706077
          ],
          [
            -46.696028,
            -23.70595
          ],
          [
            -46.695885,
            -23.705812
          ],
          [
            -46.695772,
            -23.705665
          ],
          [
            -46.695688,
            -23.705527
          ],
          [
            -46.695618,
            -23.705372
          ],
          [
            -46.695344,
            -23.704543
          ],
          [
            -46.695228,
            -23.704127
          ],
          [
            -46.69503,
            -23.703421
          ],
          [
            -46.694788,
            -23.702519
          ],
          [
            -46.694363,
            -23.701041
          ],
          [
            -46.69421,
            -23.700508
          ],
          [
            -46.694102,
            -23.700134
          ],
          [
            -46.694052,
            -23.69996
          ],
          [
            -46.694033,
            -23.69985
          ],
          [
            -46.694045,
            -23.699747
          ],
          [
            -46.694073,
            -23.699677
          ],
          [
            -46.694134,
            -23.699594
          ],
          [
            -46.694244,
            -23.699524
          ],
          [
            -46.694372,
            -23.699475
          ],
          [
            -46.694557,
            -23.69944
          ],
          [
            -46.69511,
            -23.69934
          ],
          [
            -46.695326,
            -23.699318
          ],
          [
            -46.69546,
            -23.699327
          ],
          [
            -46.695624,
            -23.699348
          ],
          [
            -46.695779,
            -23.69939
          ],
          [
            -46.695916,
            -23.699464
          ],
          [
            -46.696046,
            -23.699534
          ],
          [
            -46.696176,
            -23.699632
          ],
          [
            -46.696301,
            -23.699759
          ],
          [
            -46.696472,
            -23.699958
          ],
          [
            -46.697034,
            -23.700653
          ],
          [
            -46.697364,
            -23.701081
          ],
          [
            -46.697645,
            -23.701447
          ],
          [
            -46.697953,
            -23.701817
          ],
          [
            -46.698115,
            -23.702023
          ],
          [
            -46.69824,
            -23.702178
          ],
          [
            -46.698327,
            -23.702266
          ],
          [
            -46.698424,
            -23.702321
          ],
          [
            -46.698562,
            -23.702366
          ],
          [
            -46.698714,
            -23.702384
          ],
          [
            -46.698942,
            -23.702379
          ],
          [
            -46.699094,
            -23.702356
          ],
          [
            -46.699215,
            -23.702321
          ],
          [
            -46.699323,
            -23.702276
          ],
          [
            -46.699508,
            -23.702184
          ],
          [
            -46.6996,
            -23.702109
          ],
          [
            -46.699661,
            -23.702035
          ],
          [
            -46.69972,
            -23.701928
          ],
          [
            -46.699765,
            -23.701783
          ],
          [
            -46.699821,
            -23.701569
          ],
          [
            -46.699867,
            -23.701373
          ],
          [
            -46.699929,
            -23.701013
          ],
          [
            -46.699941,
            -23.700864
          ],
          [
            -46.699938,
            -23.700713
          ],
          [
            -46.699899,
            -23.700598
          ],
          [
            -46.699836,
            -23.70054
          ],
          [
            -46.699792,
            -23.700519
          ],
          [
            -46.699737,
            -23.700502
          ],
          [
            -46.699662,
            -23.700494
          ],
          [
            -46.699583,
            -23.700512
          ],
          [
            -46.6995,
            -23.700542
          ],
          [
            -46.699276,
            -23.700698
          ],
          [
            -46.699186,
            -23.700747
          ],
          [
            -46.699116,
            -23.700774
          ],
          [
            -46.699041,
            -23.700788
          ],
          [
            -46.698972,
            -23.700793
          ],
          [
            -46.698896,
            -23.700784
          ],
          [
            -46.698792,
            -23.700749
          ],
          [
            -46.698669,
            -23.700656
          ],
          [
            -46.6986,
            -23.700562
          ],
          [
            -46.698563,
            -23.700459
          ],
          [
            -46.698557,
            -23.700371
          ],
          [
            -46.698572,
            -23.700269
          ],
          [
            -46.698614,
            -23.700189
          ],
          [
            -46.69871,
            -23.70006
          ],
          [
            -46.698797,
            -23.69998
          ],
          [
            -46.699104,
            -23.699705
          ],
          [
            -46.699262,
            -23.699539
          ],
          [
            -46.699371,
            -23.699391
          ],
          [
            -46.69945,
            -23.699193
          ],
          [
            -46.699511,
            -23.698947
          ],
          [
            -46.699539,
            -23.698798
          ],
          [
            -46.699554,
            -23.698664
          ],
          [
            -46.699544,
            -23.698554
          ],
          [
            -46.699497,
            -23.698479
          ],
          [
            -46.699458,
            -23.698434
          ],
          [
            -46.699395,
            -23.698415
          ],
          [
            -46.699343,
            -23.698403
          ],
          [
            -46.699276,
            -23.698413
          ],
          [
            -46.699198,
            -23.698442
          ],
          [
            -46.698823,
            -23.698833
          ],
          [
            -46.698499,
            -23.699161
          ],
          [
            -46.698443,
            -23.699203
          ],
          [
            -46.698322,
            -23.69928
          ],
          [
            -46.698211,
            -23.699325
          ],
          [
            -46.698119,
            -23.69935
          ],
          [
            -46.698006,
            -23.699367
          ],
          [
            -46.697901,
            -23.699378
          ],
          [
            -46.69778,
            -23.699379
          ],
          [
            -46.69759,
            -23.699354
          ],
          [
            -46.697445,
            -23.699311
          ],
          [
            -46.697291,
            -23.69923
          ],
          [
            -46.697135,
            -23.699114
          ],
          [
            -46.697048,
            -23.699009
          ],
          [
            -46.696955,
            -23.698891
          ],
          [
            -46.696706,
            -23.698532
          ],
          [
            -46.696431,
            -23.69811
          ],
          [
            -46.69612,
            -23.697649
          ],
          [
            -46.6961,
            -23.697595
          ],
          [
            -46.696095,
            -23.697531
          ],
          [
            -46.696114,
            -23.697468
          ],
          [
            -46.69615,
            -23.6974
          ],
          [
            -46.696219,
            -23.697341
          ],
          [
            -46.696382,
            -23.697263
          ],
          [
            -46.696619,
            -23.697184
          ],
          [
            -46.6971,
            -23.697018
          ],
          [
            -46.697194,
            -23.696995
          ],
          [
            -46.697314,
            -23.696978
          ],
          [
            -46.697556,
            -23.697002
          ],
          [
            -46.697768,
            -23.697035
          ],
          [
            -46.698232,
            -23.697126
          ],
          [
            -46.698386,
            -23.697174
          ],
          [
            -46.698692,
            -23.697291
          ],
          [
            -46.698843,
            -23.697352
          ],
          [
            -46.699203,
            -23.69753
          ],
          [
            -46.699346,
            -23.697619
          ],
          [
            -46.699468,
            -23.697719
          ],
          [
            -46.699592,
            -23.697824
          ],
          [
            -46.699693,
            -23.697933
          ],
          [
            -46.699783,
            -23.698061
          ],
          [
            -46.699865,
            -23.698224
          ],
          [
            -46.699931,
            -23.698398
          ],
          [
            -46.700035,
            -23.698753
          ],
          [
            -46.700148,
            -23.6992
          ],
          [
            -46.700223,
            -23.699621
          ],
          [
            -46.700352,
            -23.70007
          ],
          [
            -46.700435,
            -23.700408
          ],
          [
            -46.700507,
            -23.700642
          ],
          [
            -46.700531,
            -23.700812
          ],
          [
            -46.700536,
            -23.701043
          ],
          [
            -46.700522,
            -23.701317
          ],
          [
            -46.700489,
            -23.701522
          ],
          [
            -46.700433,
            -23.701761
          ],
          [
            -46.700336,
            -23.702105
          ],
          [
            -46.700053,
            -23.703195
          ],
          [
            -46.699905,
            -23.703744
          ]
        ]
      }
    }
  ]
}